[{"OBJECT_NAME":"SL-12 R/B(2)","OBJECT_ID":"1988-034D","EPOCH":"2026-03-06T06:32:40.308000","MEAN_MOTION":1.0008334,"ECCENTRICITY":0.00220477,"INCLINATION":11.4067,"RA_OF_ASC_NODE":328.2498,"ARG_OF_PERICENTER":189.7433,"MEAN_ANOMALY":344.6034,"EPHEMERIS_TYPE":0,"CLASSIFICATION_TYPE":"U","NORAD_CAT_ID":19076,"ELEMENT_SET_NO":999,"REV_AT_EPOCH":13807,"BSTAR":0,"MEAN_MOTION_DOT":6.0e-8,"MEAN_MOTION_DDOT":0},{"OBJECT_NAME":"SL-12 R/B(2)","OBJECT_ID":"1988-036E","EPOCH":"2026-03-05T22:34:21.182016","MEAN_MOTION":1.0111268,"ECCENTRICITY":0.002039,"INCLINATION":10.3147,"RA_OF_ASC_NODE":323.3256,"ARG_OF_PERICENTER":184.3807,"MEAN_ANOMALY":358.3292,"EPHEMERIS_TYPE":0,"CLASSIFICATION_TYPE":"U","NORAD_CAT_ID":19094,"ELEMENT_SET_NO":999,"REV_AT_EPOCH":12078,"BSTAR":0,"MEAN_MOTION_DOT":9.0e-7,"MEAN_MOTION_DDOT":0},{"OBJECT_NAME":"INSAT-1C","OBJECT_ID":"1988-063A","EPOCH":"2026-03-06T12:13:28.378272","MEAN_MOTION":1.00240404,"ECCENTRICITY":0.0003773,"INCLINATION":11.4602,"RA_OF_ASC_NODE":328.4554,"ARG_OF_PERICENTER":125.3429,"MEAN_ANOMALY":341.8634,"EPHEMERIS_TYPE":0,"CLASSIFICATION_TYPE":"U","NORAD_CAT_ID":19330,"ELEMENT_SET_NO":999,"REV_AT_EPOCH":11931,"BSTAR":0,"MEAN_MOTION_DOT":-2.22e-6,"MEAN_MOTION_DDOT":0},{"OBJECT_NAME":"COSMOS 1961","OBJECT_ID":"1988-066A","EPOCH":"2026-03-06T14:04:58.737216","MEAN_MOTION":1.00275091,"ECCENTRICITY":0.00017489,"INCLINATION":11.5935,"RA_OF_ASC_NODE":330.3872,"ARG_OF_PERICENTER":157.4303,"MEAN_ANOMALY":327.9159,"EPHEMERIS_TYPE":0,"CLASSIFICATION_TYPE":"U","NORAD_CAT_ID":19344,"ELEMENT_SET_NO":999,"REV_AT_EPOCH":13798,"BSTAR":0,"MEAN_MOTION_DOT":-1.56e-6,"MEAN_MOTION_DDOT":0},{"OBJECT_NAME":"GORIZONT 16","OBJECT_ID":"1988-071A","EPOCH":"2026-03-07T00:11:01.970016","MEAN_MOTION":0.99987327,"ECCENTRICITY":0.0011778,"INCLINATION":11.6604,"RA_OF_ASC_NODE":330.4848,"ARG_OF_PERICENTER":77.5802,"MEAN_ANOMALY":110.5634,"EPHEMERIS_TYPE":0,"CLASSIFICATION_TYPE":"U","NORAD_CAT_ID":19397,"ELEMENT_SET_NO":999,"REV_AT_EPOCH":13721,"BSTAR":0,"MEAN_MOTION_DOT":-1.4e-6,"MEAN_MOTION_DDOT":0},{"OBJECT_NAME":"SL-12 R/B(2)","OBJECT_ID":"1988-071D","EPOCH":"2026-03-06T20:56:14.972928","MEAN_MOTION":1.00545753,"ECCENTRICITY":0.0019069,"INCLINATION":11.3858,"RA_OF_ASC_NODE":329.7203,"ARG_OF_PERICENTER":240.7834,"MEAN_ANOMALY":296.4281,"EPHEMERIS_TYPE":0,"CLASSIFICATION_TYPE":"U","NORAD_CAT_ID":19400,"ELEMENT_SET_NO":999,"REV_AT_EPOCH":13167,"BSTAR":0,"MEAN_MOTION_DOT":1.31e-6,"MEAN_MOTION_DDOT":0},{"OBJECT_NAME":"USA 31","OBJECT_ID":"1988-077A","EPOCH":"2026-03-06T06:16:37.729920","MEAN_MOTION":2.0075198,"ECCENTRICITY":0.73061157,"INCLINATION":27.4222,"RA_OF_ASC_NODE":40.1426,"ARG_OF_PERICENTER":131.8065,"MEAN_ANOMALY":318.9697,"EPHEMERIS_TYPE":0,"CLASSIFICATION_TYPE":"U","NORAD_CAT_ID":19458,"ELEMENT_SET_NO":999,"REV_AT_EPOCH":1325,"BSTAR":-0.0036434287,"MEAN_MOTION_DOT":-5.58e-6,"MEAN_MOTION_DDOT":0},{"OBJECT_NAME":"GSTAR 3","OBJECT_ID":"1988-081A","EPOCH":"2026-03-06T09:42:57.862368","MEAN_MOTION":1.00271973,"ECCENTRICITY":0.0004545,"INCLINATION":11.2638,"RA_OF_ASC_NODE":319.131,"ARG_OF_PERICENTER":219.6556,"MEAN_ANOMALY":25.8008,"EPHEMERIS_TYPE":0,"CLASSIFICATION_TYPE":"U","NORAD_CAT_ID":19483,"ELEMENT_SET_NO":999,"REV_AT_EPOCH":13356,"BSTAR":0,"MEAN_MOTION_DOT":-1.06e-6,"MEAN_MOTION_DDOT":0},{"OBJECT_NAME":"SBS 5","OBJECT_ID":"1988-081B","EPOCH":"2026-03-07T00:18:01.298592","MEAN_MOTION":0.99795095,"ECCENTRICITY":0.000849,"INCLINATION":14.5823,"RA_OF_ASC_NODE":1.7022,"ARG_OF_PERICENTER":317.4789,"MEAN_ANOMALY":225.5493,"EPHEMERIS_TYPE":0,"CLASSIFICATION_TYPE":"U","NORAD_CAT_ID":19484,"ELEMENT_SET_NO":999,"REV_AT_EPOCH":4544,"BSTAR":0,"MEAN_MOTION_DOT":-5.0e-8,"MEAN_MOTION_DDOT":0},{"OBJECT_NAME":"TITAN 34D TRANSTAGE R/B","OBJECT_ID":"1988-077C","EPOCH":"2026-03-05T02:49:32.627136","MEAN_MOTION":2.04165627,"ECCENTRICITY":0.7395224,"INCLINATION":26.2516,"RA_OF_ASC_NODE":116.1581,"ARG_OF_PERICENTER":276.0372,"MEAN_ANOMALY":11.9867,"EPHEMERIS_TYPE":0,"CLASSIFICATION_TYPE":"U","NORAD_CAT_ID":19490,"ELEMENT_SET_NO":999,"REV_AT_EPOCH":5028,"BSTAR":0.0044106,"MEAN_MOTION_DOT":-8.9e-7,"MEAN_MOTION_DDOT":0},{"OBJECT_NAME":"TDRS 3","OBJECT_ID":"1988-091B","EPOCH":"2026-03-05T19:09:20.611872","MEAN_MOTION":1.00259845,"ECCENTRICITY":0.00441837,"INCLINATION":12.6797,"RA_OF_ASC_NODE":341.6841,"ARG_OF_PERICENTER":353.3967,"MEAN_ANOMALY":66.2018,"EPHEMERIS_TYPE":0,"CLASSIFICATION_TYPE":"U","NORAD_CAT_ID":19548,"ELEMENT_SET_NO":999,"REV_AT_EPOCH":12435,"BSTAR":0,"MEAN_MOTION_DOT":-3.03e-6,"MEAN_MOTION_DDOT":0},{"OBJECT_NAME":"IUS R/B(2)","OBJECT_ID":"1988-091D","EPOCH":"2026-03-07T03:19:43.876128","MEAN_MOTION":1.00477851,"ECCENTRICITY":0.0020647,"INCLINATION":12.3341,"RA_OF_ASC_NODE":331.7279,"ARG_OF_PERICENTER":304.3802,"MEAN_ANOMALY":231.321,"EPHEMERIS_TYPE":0,"CLASSIFICATION_TYPE":"U","NORAD_CAT_ID":19550,"ELEMENT_SET_NO":999,"REV_AT_EPOCH":12908,"BSTAR":0,"MEAN_MOTION_DOT":-2.97e-6,"MEAN_MOTION_DDOT":0},{"OBJECT_NAME":"RADUGA 22","OBJECT_ID":"1988-095A","EPOCH":"2026-03-06T12:18:17.938368","MEAN_MOTION":1.0016884,"ECCENTRICITY":0.00045307,"INCLINATION":11.676,"RA_OF_ASC_NODE":330.8092,"ARG_OF_PERICENTER":205.4128,"MEAN_ANOMALY":269.0912,"EPHEMERIS_TYPE":0,"CLASSIFICATION_TYPE":"U","NORAD_CAT_ID":19596,"ELEMENT_SET_NO":999,"REV_AT_EPOCH":12062,"BSTAR":0,"MEAN_MOTION_DOT":-2.77e-6,"MEAN_MOTION_DDOT":0},{"OBJECT_NAME":"SL-6 R/B(2)","OBJECT_ID":"1988-096D","EPOCH":"2026-03-06T05:15:03.976128","MEAN_MOTION":2.04282452,"ECCENTRICITY":0.62691882,"INCLINATION":67.7786,"RA_OF_ASC_NODE":6.5554,"ARG_OF_PERICENTER":32.8256,"MEAN_ANOMALY":353.6882,"EPHEMERIS_TYPE":0,"CLASSIFICATION_TYPE":"U","NORAD_CAT_ID":19611,"ELEMENT_SET_NO":999,"REV_AT_EPOCH":27861,"BSTAR":0,"MEAN_MOTION_DOT":-6.23e-6,"MEAN_MOTION_DDOT":0},{"OBJECT_NAME":"SKYNET 4B","OBJECT_ID":"1988-109A","EPOCH":"2026-03-06T20:59:52.126368","MEAN_MOTION":0.99668817,"ECCENTRICITY":0.0007231,"INCLINATION":13.1974,"RA_OF_ASC_NODE":337.6318,"ARG_OF_PERICENTER":318.0765,"MEAN_ANOMALY":224.7064,"EPHEMERIS_TYPE":0,"CLASSIFICATION_TYPE":"U","NORAD_CAT_ID":19687,"ELEMENT_SET_NO":999,"REV_AT_EPOCH":11714,"BSTAR":0,"MEAN_MOTION_DOT":9.9e-7,"MEAN_MOTION_DDOT":0},{"OBJECT_NAME":"STTW-3","OBJECT_ID":"1988-111A","EPOCH":"2026-03-05T15:32:20.997600","MEAN_MOTION":1.00194156,"ECCENTRICITY":0.0003512,"INCLINATION":14.1048,"RA_OF_ASC_NODE":346.3379,"ARG_OF_PERICENTER":196.3398,"MEAN_ANOMALY":282.9616,"EPHEMERIS_TYPE":0,"CLASSIFICATION_TYPE":"U","NORAD_CAT_ID":19710,"ELEMENT_SET_NO":999,"REV_AT_EPOCH":12980,"BSTAR":0,"MEAN_MOTION_DOT":-4.3e-7,"MEAN_MOTION_DDOT":0},{"OBJECT_NAME":"SL-6 R/B(2)","OBJECT_ID":"1989-011D","EPOCH":"2026-03-05T12:58:46.525728","MEAN_MOTION":2.04169598,"ECCENTRICITY":0.7125704,"INCLINATION":63.1231,"RA_OF_ASC_NODE":213.5495,"ARG_OF_PERICENTER":43.4206,"MEAN_ANOMALY":354.3295,"EPHEMERIS_TYPE":0,"CLASSIFICATION_TYPE":"U","NORAD_CAT_ID":19799,"ELEMENT_SET_NO":999,"REV_AT_EPOCH":23943,"BSTAR":0,"MEAN_MOTION_DOT":8.23e-6,"MEAN_MOTION_DDOT":0},{"OBJECT_NAME":"MOLNIYA 1-75","OBJECT_ID":"1989-014A","EPOCH":"2026-02-27T12:48:07.246080","MEAN_MOTION":2.00555514,"ECCENTRICITY":0.67638453,"INCLINATION":63.8314,"RA_OF_ASC_NODE":150.6765,"ARG_OF_PERICENTER":256.3681,"MEAN_ANOMALY":25.4238,"EPHEMERIS_TYPE":0,"CLASSIFICATION_TYPE":"U","NORAD_CAT_ID":19807,"ELEMENT_SET_NO":999,"REV_AT_EPOCH":27108,"BSTAR":0,"MEAN_MOTION_DOT":2.72e-6,"MEAN_MOTION_DDOT":0},{"OBJECT_NAME":"SL-6 R/B(2)","OBJECT_ID":"1989-014D","EPOCH":"2026-03-01T17:43:18.739776","MEAN_MOTION":2.0738691,"ECCENTRICITY":0.71469969,"INCLINATION":63.8655,"RA_OF_ASC_NODE":55.4623,"ARG_OF_PERICENTER":251.5815,"MEAN_ANOMALY":24.0261,"EPHEMERIS_TYPE":0,"CLASSIFICATION_TYPE":"U","NORAD_CAT_ID":19810,"ELEMENT_SET_NO":999,"REV_AT_EPOCH":28036,"BSTAR":0,"MEAN_MOTION_DOT":7.91e-6,"MEAN_MOTION_DDOT":0},{"OBJECT_NAME":"IUS R/B(2)","OBJECT_ID":"1989-021D","EPOCH":"2026-03-06T14:05:15.969696","MEAN_MOTION":1.00621966,"ECCENTRICITY":0.00227802,"INCLINATION":8.8722,"RA_OF_ASC_NODE":321.0261,"ARG_OF_PERICENTER":192.2322,"MEAN_ANOMALY":306.0839,"EPHEMERIS_TYPE":0,"CLASSIFICATION_TYPE":"U","NORAD_CAT_ID":19913,"ELEMENT_SET_NO":999,"REV_AT_EPOCH":12462,"BSTAR":0,"MEAN_MOTION_DOT":-2.56e-6,"MEAN_MOTION_DDOT":0},{"OBJECT_NAME":"RADUGA 23","OBJECT_ID":"1989-030A","EPOCH":"2026-03-06T15:22:35.262624","MEAN_MOTION":1.00261299,"ECCENTRICITY":0.00187278,"INCLINATION":11.9231,"RA_OF_ASC_NODE":332.6577,"ARG_OF_PERICENTER":209.2217,"MEAN_ANOMALY":331.9767,"EPHEMERIS_TYPE":0,"CLASSIFICATION_TYPE":"U","NORAD_CAT_ID":19928,"ELEMENT_SET_NO":999,"REV_AT_EPOCH":13382,"BSTAR":0,"MEAN_MOTION_DOT":-3.76e-6,"MEAN_MOTION_DDOT":0},{"OBJECT_NAME":"TITAN 34D TRANSTAGE R/B","OBJECT_ID":"1989-035C","EPOCH":"2026-03-05T14:53:24.885024","MEAN_MOTION":0.99431448,"ECCENTRICITY":0.10561968,"INCLINATION":8.1617,"RA_OF_ASC_NODE":5.0986,"ARG_OF_PERICENTER":54.7879,"MEAN_ANOMALY":314.6125,"EPHEMERIS_TYPE":0,"CLASSIFICATION_TYPE":"U","NORAD_CAT_ID":19983,"ELEMENT_SET_NO":999,"REV_AT_EPOCH":2446,"BSTAR":0,"MEAN_MOTION_DOT":-2.68e-6,"MEAN_MOTION_DDOT":0},{"OBJECT_NAME":"SUPERBIRD-A","OBJECT_ID":"1989-041A","EPOCH":"2026-03-06T20:55:45.019776","MEAN_MOTION":0.99750737,"ECCENTRICITY":0.0003951,"INCLINATION":12.2946,"RA_OF_ASC_NODE":333.0005,"ARG_OF_PERICENTER":55.033,"MEAN_ANOMALY":116.8334,"EPHEMERIS_TYPE":0,"CLASSIFICATION_TYPE":"U","NORAD_CAT_ID":20040,"ELEMENT_SET_NO":999,"REV_AT_EPOCH":13344,"BSTAR":0,"MEAN_MOTION_DOT":5.9e-7,"MEAN_MOTION_DDOT":0},{"OBJECT_NAME":"DFS 1","OBJECT_ID":"1989-041B","EPOCH":"2026-03-06T21:58:38.449920","MEAN_MOTION":1.00666157,"ECCENTRICITY":0.0017223,"INCLINATION":14.0402,"RA_OF_ASC_NODE":347.3307,"ARG_OF_PERICENTER":308.882,"MEAN_ANOMALY":244.3891,"EPHEMERIS_TYPE":0,"CLASSIFICATION_TYPE":"U","NORAD_CAT_ID":20041,"ELEMENT_SET_NO":999,"REV_AT_EPOCH":12346,"BSTAR":0,"MEAN_MOTION_DOT":5.0e-7,"MEAN_MOTION_DDOT":0}]
